NORAD_CAT_ID,OBJECT_NAME,OBJECT_TYPE,EPOCH,MEAN_MOTION,ECCENTRICITY,INCLINATION,RA_OF_ASC_NODE,ARG_OF_PERICENTER,MEAN_ANOMALY,BSTAR,MEAN_MOTION_DOT,MEAN_MOTION_DDOT,TLE_LINE0,TLE_LINE1,TLE_LINE2,SEMIMAJOR_AXIS,PERIOD,APOGEE,PERIGEE,DECAYED
55271.0,STARLINK-5306,PAYLOAD,2024-07-03 05:36:17,14.98328033,0.000286,69.9997,153.8259,270.06,90.0231,-2.885e-05,-4.37e-06,0.0,0 STARLINK-5306,1 55271U 23010C   24185.23353150 -.00000437  00000-0 -28850-4 0  9991,2 55271  69.9997 153.8259 0002860 270.0600  90.0231 14.98328033 80436,6950.199,96.107,574.052,570.076,0.0
55271.0,STARLINK-5306,PAYLOAD,2024-07-03 21:37:37,14.9832985,0.0002899,69.9997,152.1425,271.1274,88.9553,5.3577e-05,5.46e-06,0.0,0 STARLINK-5306,1 55271U 23010C   24185.90112833  .00000546  00000-0  53577-4 0  9999,2 55271  69.9997 152.1425 0002899 271.1274  88.9553 14.98329850 80840,6950.193,96.107,574.073,570.043,0.0
55271.0,STARLINK-5306,PAYLOAD,2024-07-04 07:14:25,14.98332418,0.0002929,69.9997,151.1329,270.0333,90.049,5.5393e-05,5.68e-06,0.0,0 STARLINK-5306,1 55271U 23010C   24186.30168622  .00000568  00000-0  55393-4 0  9993,2 55271  69.9997 151.1329 0002929 270.0333  90.0490 14.98332418 80590,6950.185,96.107,574.086,570.015,0.0
55271.0,STARLINK-5306,PAYLOAD,2024-07-04 23:15:46,14.98328434,0.0003024,69.9995,149.4492,271.0183,89.063,7.5098e-05,8.03e-06,0.0,0 STARLINK-5306,1 55271U 23010C   24186.96928745  .00000803  00000-0  75098-4 0  9991,2 55271  69.9995 149.4492 0003024 271.0183  89.0630 14.98328434 81004,6950.198,96.107,574.164,569.961,0.0
55271.0,STARLINK-5306,PAYLOAD,2024-07-05 07:16:26,14.98335032,0.0002997,69.9996,148.6075,270.8931,89.1885,0.000117,1.303e-05,0.0,0 STARLINK-5306,1 55271U 23010C   24187.30308196  .00001303  00000-0  11700-3 0  9997,2 55271  69.9996 148.6075 0002997 270.8931  89.1885 14.98335032 80744,6950.177,96.107,574.125,569.959,0.0
55271.0,STARLINK-5306,PAYLOAD,2024-07-05 15:17:06,14.98330557,0.0002963,69.9997,147.766,271.1353,88.9466,2.7802e-05,2.39e-06,0.0,0 STARLINK-5306,1 55271U 23010C   24187.63688648  .00000239  00000-0  27802-4 0  9994,2 55271  69.9997 147.7660 0002963 271.1353  88.9466 14.98330557 80794,6950.191,96.107,574.116,569.997,0.0
55271.0,STARLINK-5306,PAYLOAD,2024-07-05 21:41:39,14.98327581,0.0002927,69.9998,147.0929,270.7397,89.3427,-1.7172e-05,-2.98e-06,0.0,0 STARLINK-5306,1 55271U 23010C   24187.90392984 -.00000298  00000-0 -17172-4 0  9995,2 55271  69.9998 147.0929 0002927 270.7397  89.3427 14.98327581 81144,6950.2,96.107,574.1,570.031,0.0
55271.0,STARLINK-5306,PAYLOAD,2024-07-06 07:18:27,14.98331186,0.0002872,70.0,146.0829,269.4957,90.5873,-2.5195e-06,-1.23e-06,0.0,0 STARLINK-5306,1 55271U 23010C   24188.30448705 -.00000123  00000-0 -25195-5 0  9995,2 55271  70.0000 146.0829 0002872 269.4957  90.5873 14.98331186 81207,6950.189,96.107,574.05,570.058,0.0
55271.0,STARLINK-5306,PAYLOAD,2024-07-06 21:43:40,14.98331038,0.0002838,70.0001,144.5678,270.6353,89.4481,1.07e-06,-8e-07,0.0,0 STARLINK-5306,1 55271U 23010C   24188.90532657 -.00000080  00000-0  10700-5 0  9998,2 55271  70.0001 144.5678 0002838 270.6353  89.4481 14.98331038 80981,6950.19,96.107,574.027,570.082,0.0
55271.0,STARLINK-5306,PAYLOAD,2024-07-07 07:20:28,14.9833147,0.0002856,70.0001,143.5585,270.6775,89.4057,-6.1375e-06,-1.66e-06,0.0,0 STARLINK-5306,1 55271U 23010C   24189.30588627 -.00000166  00000-0 -61375-5 0  9991,2 55271  70.0001 143.5585 0002856 270.6775  89.4057 14.98331470 81356,6950.188,96.107,574.038,570.068,0.0
55271.0,STARLINK-5306,PAYLOAD,2024-07-08 00:57:57,14.98331483,0.0002957,69.9998,141.707,268.4107,91.6714,7.1675e-05,7.62e-06,0.0,0 STARLINK-5306,1 55271U 23010C   24190.04024355  .00000762  00000-0  71675-4 0  9990,2 55271  69.9998 141.7070 0002957 268.4107  91.6714 14.98331483 81150,6950.188,96.107,574.108,569.998,0.0
55271.0,STARLINK-5306,PAYLOAD,2024-07-08 13:47:01,14.98332469,0.000291,70.0,140.361,266.6794,93.4033,5.3545e-05,5.46e-06,0.0,0 STARLINK-5306,1 55271U 23010C   24190.57432261  .00000546  00000-0  53545-4 0  9993,2 55271  70.0000 140.3610 0002910 266.6794  93.4033 14.98332469 81545,6950.185,96.107,574.073,570.028,0.0
55271.0,STARLINK-5306,PAYLOAD,2024-07-08 21:47:41,14.98330682,0.0002891,70.0,139.5195,267.1779,92.9049,3.5194e-05,3.27e-06,0.0,0 STARLINK-5306,1 55271U 23010C   24190.90812406  .00000327  00000-0  35194-4 0  9990,2 55271  70.0000 139.5195 0002891 267.1779  92.9049 14.98330682 81591,6950.191,96.107,574.065,570.046,0.0
55271.0,STARLINK-5306,PAYLOAD,2024-07-09 04:12:14,14.98330432,0.0002926,69.9999,138.8461,267.0006,93.0818,2.532e-05,2.09e-06,0.0,0 STARLINK-5306,1 55271U 23010C   24191.17516417  .00000209  00000-0  25320-4 0  9992,2 55271  69.9999 138.8461 0002926 267.0006  93.0818 14.98330432 81324,6950.192,96.107,574.09,570.023,0.0
55271.0,STARLINK-5306,PAYLOAD,2024-07-09 13:49:02,14.98329844,0.0002978,69.9999,137.8355,271.1694,88.9124,-1.0341e-06,-1.05e-06,0.0,0 STARLINK-5306,1 55271U 23010C   24191.57572502 -.00000105  00000-0 -10341-5 0  9998,2 55271  69.9999 137.8355 0002978 271.1694  88.9124 14.98329844 81699,6950.193,96.107,574.128,569.989,0.0
55271.0,STARLINK-5306,PAYLOAD,2024-07-09 21:49:43,14.9832634,0.000296,70.0002,136.9946,267.885,92.197,-5.9062e-05,-7.98e-06,0.0,0 STARLINK-5306,1 55271U 23010C   24191.90952889 -.00000798  00000-0 -59062-4 0  9995,2 55271  70.0002 136.9946 0002960 267.8850  92.1970 14.98326340 81740,6950.204,96.107,574.126,570.012,0.0
55271.0,STARLINK-5306,PAYLOAD,2024-07-10 04:14:15,14.98326438,0.0002993,69.9999,136.3203,269.1171,90.9645,-1.234e-05,-2.4e-06,0.0,0 STARLINK-5306,1 55271U 23010C   24192.17656806 -.00000240  00000-0 -12340-4 0  9995,2 55271  69.9999 136.3203 0002993 269.1171  90.9645 14.98326438 81472,6950.204,96.107,574.149,569.989,0.0
55271.0,STARLINK-5306,PAYLOAD,2024-07-10 13:51:03,14.98326541,0.0002965,70.0001,135.3108,265.6876,94.3945,4.7056e-05,4.68e-06,0.0,0 STARLINK-5306,1 55271U 23010C   24192.57712676  .00000468  00000-0  47056-4 0  9999,2 55271  70.0001 135.3108 0002965 265.6876  94.3945 14.98326541 81841,6950.204,96.107,574.129,570.008,0.0
55271.0,STARLINK-5306,PAYLOAD,2024-07-10 21:51:43,14.98330921,0.0003055,69.9999,134.4691,270.7548,89.3261,5.8464e-05,6.05e-06,0.0,0 STARLINK-5306,1 55271U 23010C   24192.91092316  .00000605  00000-0  58464-4 0  9997,2 55271  69.9999 134.4691 0003055 270.7548  89.3261 14.98330921 81892,6950.19,96.107,574.178,569.932,0.0
55271.0,STARLINK-5306,PAYLOAD,2024-07-11 04:16:15,14.98334664,0.0003058,69.9999,133.7959,270.7679,89.313,7.2905e-05,7.77e-06,0.0,0 STARLINK-5306,1 55271U 23010C   24193.17796020  .00000777  00000-0  72905-4 0  9995,2 55271  69.9999 133.7959 0003058 270.7679  89.3130 14.98334664 81623,6950.178,96.107,574.169,569.918,0.0
55271.0,STARLINK-5306,PAYLOAD,2024-07-11 05:52:23,14.98335578,0.0003057,70.0,133.6276,270.8517,89.2292,8.1823e-05,8.84e-06,0.0,0 STARLINK-5306,1 55271U 23010C   24193.24471923  .00000884  00000-0  81823-4 0  9993,2 55271  70.0000 133.6276 0003057 270.8517  89.2292 14.98335578 81949,6950.176,96.107,574.165,569.916,0.0
55271.0,STARLINK-5306,PAYLOAD,2024-07-12 04:18:16,14.98332249,0.0003014,69.9999,131.271,270.3297,89.7517,9.2146e-05,1.007e-05,0.0,0 STARLINK-5306,1 55271U 23010C   24194.17936064  .00001007  00000-0  92146-4 0  9996,2 55271  69.9999 131.2710 0003014 270.3297  89.7517 14.98332249 81771,6950.186,96.107,574.146,569.956,0.0
55271.0,STARLINK-5306,PAYLOAD,2024-07-12 05:54:24,14.98334687,0.0002996,70.0,131.1026,270.2742,89.8074,0.00011833,1.319e-05,0.0,0 STARLINK-5306,1 55271U 23010C   24194.24611838  .00001319  00000-0  11833-3 0  9992,2 55271  70.0000 131.1026 0002996 270.2742  89.8074 14.98334687 82091,6950.178,96.107,574.126,569.961,0.0
55271.0,STARLINK-5306,PAYLOAD,2024-07-12 21:55:45,14.98323264,0.0002763,70.0009,129.4211,268.3263,91.758,0.0001193,1.331e-05,0.0,0 STARLINK-5306,1 55271U 23010C   24194.91372555  .00001331  00000-0  11930-3 0  9998,2 55271  70.0009 129.4211 0002763 268.3263  91.7580 14.98323264 82198,6950.214,96.107,573.999,570.158,0.0
55271.0,STARLINK-5306,PAYLOAD,2024-07-13 04:20:18,14.98330417,0.0002702,70.0007,128.7478,266.6907,93.3943,-2.8499e-05,-4.33e-06,0.0,0 STARLINK-5306,1 55271U 23010C   24195.18076447 -.00000433  00000-0 -28499-4 0  9992,2 55271  70.0007 128.7478 0002702 266.6907  93.3943 14.98330417 81921,6950.192,96.107,573.935,570.179,0.0
55271.0,STARLINK-5306,PAYLOAD,2024-07-13 12:20:58,14.98329949,0.0002673,70.0007,127.9061,267.37,92.7153,-3.0459e-05,-4.56e-06,0.0,0 STARLINK-5306,1 55271U 23010C   24195.51456488 -.00000456  00000-0 -30459-4 0  9990,2 55271  70.0007 127.9061 0002673 267.3700  92.7153 14.98329949 82280,6950.193,96.107,573.916,570.2,0.0
55271.0,STARLINK-5306,PAYLOAD,2024-07-13 21:57:46,14.98332535,0.0002767,70.0004,126.8957,268.2989,91.7853,-6.5826e-06,-1.72e-06,0.0,0 STARLINK-5306,1 55271U 23010C   24195.91512254 -.00000172  00000-0 -65826-5 0  9990,2 55271  70.0004 126.8957 0002767 268.2989  91.7853 14.98332535 82340,6950.185,96.107,573.973,570.127,0.0
55271.0,STARLINK-5306,PAYLOAD,2024-07-14 04:22:18,14.98335743,0.0002719,70.0005,126.2226,268.2769,91.8079,3.4808e-05,3.22e-06,0.0,0 STARLINK-5306,1 55271U 23010C   24196.18215886  .00000322  00000-0  34808-4 0  9991,2 55271  70.0005 126.2226 0002719 268.2769  91.8079 14.98335743 82072,6950.175,96.107,573.93,570.15,0.0
55271.0,STARLINK-5306,PAYLOAD,2024-07-14 12:22:58,14.98341812,0.0002759,70.0005,125.3806,270.0689,90.0154,-0.00020695,-2.562e-05,0.0,0 STARLINK-5306,1 55271U 23010C   24196.51595956 -.00002562  00000-0 -20695-3 0  9995,2 55271  70.0005 125.3806 0002759 270.0689  90.0154 14.98341812 82431,6950.156,96.106,573.939,570.104,0.0
55271.0,STARLINK-5306,PAYLOAD,2024-07-14 21:59:47,14.98329364,0.0003006,69.9997,124.371,269.472,90.6095,5.5832e-05,5.73e-06,0.0,0 STARLINK-5306,1 55271U 23010C   24196.91652109  .00000573  00000-0  55832-4 0  9993,2 55271  69.9997 124.3710 0003006 269.4720  90.6095 14.98329364 82499,6950.195,96.107,574.149,569.971,0.0
